*******************************************************************************
Ephemeris / WWW_USER Mon Mar 24 11:45:00 2025 Pasadena, USA      / Horizons    
*******************************************************************************
Target body name: (2017 SN16)                     {source: JPL#20}
Center body name: Earth (399)                     {source: DE441}
Center-site name: Gemini South Obs., Cerro Pachon
*******************************************************************************
Start time      : A.D. 2018-Aug-14 22:26:00.0000 UT      
Stop  time      : A.D. 2018-Aug-15 11:08:00.0000 UT      
Step-size       : 1 minutes
*******************************************************************************
Target pole/equ : undefined
Target radii    : undefined                                                    
Center geodetic : 289.2634, -30.2406227, 2.71233  {E-lon(deg),Lat(deg),Alt(km)}
Center cylindric: 289.2634,5517.21435,-3194.81213 {E-lon(deg),Dxy(km),Dz(km)}
Center pole/equ : ITRF93                          {East-longitude positive}
Center radii    : 6378.137, 6378.137, 6356.752 km {Equator_a, b, pole_c}       
Target primary  : Sun
Vis. interferer : MOON (R_eq= 1737.400) km        {source: DE441}
Rel. light bend : Sun                             {source: DE441}
Rel. lght bnd GM: 1.3271E+11 km^3/s^2                                          
Small-body perts: Yes                             {source: SB441-N16}
Atmos refraction: NO (AIRLESS)
RA format       : HMS
Time format     : CAL 
Calendar mode   : Mixed Julian/Gregorian
RTS-only print  : NO       
EOP file        : eop.250321.p250617                                           
EOP coverage    : DATA-BASED 1962-JAN-20 TO 2025-MAR-21. PREDICTS-> 2025-JUN-16
Units conversion: 1 au= 149597870.700 km, c= 299792.458 km/s, 1 day= 86400.0 s 
Table cut-offs 1: Elevation (-90.0deg=NO ),Airmass (>38.000=NO), Daylight (YES)
Table cut-offs 2: Solar elongation (  0.0,180.0=NO ),Local Hour Angle( 0.0=NO )
Table cut-offs 3: RA/DEC angular rate (     0.0=NO )                           
*******************************************************************************
Initial IAU76/J2000 heliocentric ecliptic osculating elements (au, days, deg.):
  EPOCH=  2458305.5 ! 2018-Jul-06.00 (TDB)         Residual RMS= .23751        
   EC= .1454884975659386   QR= .8682464985612274   TP= 2458145.5722438502      
   OM= 2.759719470837934   W=  137.1017088998531   IN= 13.38264682844635       
  Equivalent ICRF heliocentric cartesian coordinates (au, au/d):
   X= 5.756755401261899E-01  Y=-7.953424559592890E-01  Z=-6.031561894536019E-01
  VX= 1.332076113263395E-02 VY= 5.454663564585547E-03 VZ= 3.896229736425836E-03
Asteroid physical parameters (km, seconds, rotational period in hours):        
   GM= n.a.                RAD= n.a.               ROTPER= n.a.                
   H= 23.34                G= .150                 B-V= n.a.                   
                           ALBEDO= n.a.            STYP= n.a.                  
*******************************************************************************
 Date__(UT)__HR:MN     R.A._________(ICRF)_________DEC
******************************************************
$$SOE
 2018-Aug-15 06:38     01 49 19.788544 -27 27 24.93199
 2018-Aug-15 06:39     01 49 19.764744 -27 27 24.77288
 2018-Aug-15 06:40     01 49 19.740915 -27 27 24.61355
 2018-Aug-15 06:41     01 49 19.717059 -27 27 24.45400
 2018-Aug-15 06:42     01 49 19.693176 -27 27 24.29422
 2018-Aug-15 06:43     01 49 19.669265 -27 27 24.13423
 2018-Aug-15 06:44     01 49 19.645327 -27 27 23.97401
 2018-Aug-15 06:45     01 49 19.621362 -27 27 23.81356
 2018-Aug-15 06:46     01 49 19.597369 -27 27 23.65289
 2018-Aug-15 06:47     01 49 19.573351 -27 27 23.49199
 2018-Aug-15 06:48     01 49 19.549305 -27 27 23.33087
 2018-Aug-15 06:49     01 49 19.525233 -27 27 23.16952
 2018-Aug-15 06:50     01 49 19.501135 -27 27 23.00795
 2018-Aug-15 06:51     01 49 19.477010 -27 27 22.84614
 2018-Aug-15 06:52     01 49 19.452860 -27 27 22.68411
 2018-Aug-15 06:53     01 49 19.428684 -27 27 22.52184
 2018-Aug-15 06:54     01 49 19.404482 -27 27 22.35935
 2018-Aug-15 06:55     01 49 19.380254 -27 27 22.19662
 2018-Aug-15 06:56     01 49 19.356002 -27 27 22.03367
 2018-Aug-15 06:57     01 49 19.331724 -27 27 21.87048
 2018-Aug-15 06:58     01 49 19.307421 -27 27 21.70706
 2018-Aug-15 06:59     01 49 19.283093 -27 27 21.54340
 2018-Aug-15 07:00     01 49 19.258741 -27 27 21.37951
 2018-Aug-15 07:01     01 49 19.234364 -27 27 21.21539
 2018-Aug-15 07:02     01 49 19.209963 -27 27 21.05104
 2018-Aug-15 07:03     01 49 19.185537 -27 27 20.88644
 2018-Aug-15 07:04     01 49 19.161088 -27 27 20.72161
 2018-Aug-15 07:05     01 49 19.136614 -27 27 20.55655
 2018-Aug-15 07:06     01 49 19.112117 -27 27 20.39125
 2018-Aug-15 07:07     01 49 19.087597 -27 27 20.22571
 2018-Aug-15 07:08     01 49 19.063053 -27 27 20.05993
 2018-Aug-15 07:09     01 49 19.038486 -27 27 19.89391
 2018-Aug-15 07:10     01 49 19.013896 -27 27 19.72765
 2018-Aug-15 07:11     01 49 18.989283 -27 27 19.56115
 2018-Aug-15 07:12     01 49 18.964647 -27 27 19.39442
 2018-Aug-15 07:13     01 49 18.939989 -27 27 19.22744
 2018-Aug-15 07:14     01 49 18.915308 -27 27 19.06022
 2018-Aug-15 07:15     01 49 18.890606 -27 27 18.89276
 2018-Aug-15 07:16     01 49 18.865881 -27 27 18.72505
 2018-Aug-15 07:17     01 49 18.841134 -27 27 18.55710
 2018-Aug-15 07:18     01 49 18.816366 -27 27 18.38891
 2018-Aug-15 07:19     01 49 18.791576 -27 27 18.22048
 2018-Aug-15 07:20     01 49 18.766765 -27 27 18.05179
 2018-Aug-15 07:21     01 49 18.741933 -27 27 17.88287
 2018-Aug-15 07:22     01 49 18.717080 -27 27 17.71370
 2018-Aug-15 07:23     01 49 18.692206 -27 27 17.54428
 2018-Aug-15 07:24     01 49 18.667312 -27 27 17.37462
 2018-Aug-15 07:25     01 49 18.642396 -27 27 17.20470
 2018-Aug-15 07:26     01 49 18.617461 -27 27 17.03455
 2018-Aug-15 07:27     01 49 18.592506 -27 27 16.86414
 2018-Aug-15 07:28     01 49 18.567530 -27 27 16.69348
 2018-Aug-15 07:29     01 49 18.542535 -27 27 16.52258
 2018-Aug-15 07:30     01 49 18.517520 -27 27 16.35142
 2018-Aug-15 07:31     01 49 18.492486 -27 27 16.18002
 2018-Aug-15 07:32     01 49 18.467433 -27 27 16.00837
 2018-Aug-15 07:33     01 49 18.442360 -27 27 15.83646
 2018-Aug-15 07:34     01 49 18.417269 -27 27 15.66431
 2018-Aug-15 07:35     01 49 18.392159 -27 27 15.49190
 2018-Aug-15 07:36     01 49 18.367030 -27 27 15.31924
 2018-Aug-15 07:37     01 49 18.341883 -27 27 15.14633
 2018-Aug-15 07:38     01 49 18.316718 -27 27 14.97316
 2018-Aug-15 07:39     01 49 18.291535 -27 27 14.79974
 2018-Aug-15 07:40     01 49 18.266334 -27 27 14.62607
 2018-Aug-15 07:41     01 49 18.241115 -27 27 14.45215
 2018-Aug-15 07:42     01 49 18.215879 -27 27 14.27797
 2018-Aug-15 07:43     01 49 18.190626 -27 27 14.10353
 2018-Aug-15 07:44     01 49 18.165355 -27 27 13.92884
 2018-Aug-15 07:45     01 49 18.140068 -27 27 13.75389
 2018-Aug-15 07:46     01 49 18.114763 -27 27 13.57869
 2018-Aug-15 07:47     01 49 18.089443 -27 27 13.40323
 2018-Aug-15 07:48     01 49 18.064105 -27 27 13.22752
 2018-Aug-15 07:49     01 49 18.038752 -27 27 13.05154
 2018-Aug-15 07:50     01 49 18.013383 -27 27 12.87531
 2018-Aug-15 07:51     01 49 17.987997 -27 27 12.69882
 2018-Aug-15 07:52     01 49 17.962597 -27 27 12.52208
 2018-Aug-15 07:53     01 49 17.937180 -27 27 12.34507
 2018-Aug-15 07:54     01 49 17.911748 -27 27 12.16781
 2018-Aug-15 07:55     01 49 17.886302 -27 27 11.99028
 2018-Aug-15 07:56     01 49 17.860840 -27 27 11.81250
 2018-Aug-15 07:57     01 49 17.835363 -27 27 11.63446
 2018-Aug-15 07:58     01 49 17.809872 -27 27 11.45616
 2018-Aug-15 07:59     01 49 17.784367 -27 27 11.27759
 2018-Aug-15 08:00     01 49 17.758847 -27 27 11.09877
 2018-Aug-15 08:01     01 49 17.733313 -27 27 10.91968
 2018-Aug-15 08:02     01 49 17.707765 -27 27 10.74033
 2018-Aug-15 08:03     01 49 17.682204 -27 27 10.56073
 2018-Aug-15 08:04     01 49 17.656629 -27 27 10.38085
 2018-Aug-15 08:05     01 49 17.631041 -27 27 10.20072
 2018-Aug-15 08:06     01 49 17.605440 -27 27 10.02033
 2018-Aug-15 08:07     01 49 17.579826 -27 27 09.83967
 2018-Aug-15 08:08     01 49 17.554199 -27 27 09.65874
 2018-Aug-15 08:09     01 49 17.528560 -27 27 09.47756
 2018-Aug-15 08:10     01 49 17.502908 -27 27 09.29611
 2018-Aug-15 08:11     01 49 17.477244 -27 27 09.11440
 2018-Aug-15 08:12     01 49 17.451569 -27 27 08.93242
 2018-Aug-15 08:13     01 49 17.425881 -27 27 08.75018
 2018-Aug-15 08:14     01 49 17.400182 -27 27 08.56767
 2018-Aug-15 08:15     01 49 17.374471 -27 27 08.38490
 2018-Aug-15 08:16     01 49 17.348749 -27 27 08.20186
 2018-Aug-15 08:17     01 49 17.323016 -27 27 08.01856
 2018-Aug-15 08:18     01 49 17.297272 -27 27 07.83499
 2018-Aug-15 08:19     01 49 17.271517 -27 27 07.65116
 2018-Aug-15 08:20     01 49 17.245752 -27 27 07.46706
 2018-Aug-15 08:21     01 49 17.219976 -27 27 07.28270
 2018-Aug-15 08:22     01 49 17.194191 -27 27 07.09806
 2018-Aug-15 08:23     01 49 17.168395 -27 27 06.91317
 2018-Aug-15 08:24     01 49 17.142590 -27 27 06.72800
 2018-Aug-15 08:25     01 49 17.116775 -27 27 06.54257
 2018-Aug-15 08:26     01 49 17.090951 -27 27 06.35687
 2018-Aug-15 08:27     01 49 17.065117 -27 27 06.17090
 2018-Aug-15 08:28     01 49 17.039275 -27 27 05.98467
 2018-Aug-15 08:29     01 49 17.013423 -27 27 05.79816
 2018-Aug-15 08:30     01 49 16.987563 -27 27 05.61139
 2018-Aug-15 08:31     01 49 16.961695 -27 27 05.42436
 2018-Aug-15 08:32     01 49 16.935818 -27 27 05.23705
 2018-Aug-15 08:33     01 49 16.909934 -27 27 05.04947
 2018-Aug-15 08:34     01 49 16.884041 -27 27 04.86163
 2018-Aug-15 08:35     01 49 16.858141 -27 27 04.67352
 2018-Aug-15 08:36     01 49 16.832233 -27 27 04.48514
 2018-Aug-15 08:37     01 49 16.806318 -27 27 04.29649
 2018-Aug-15 08:38     01 49 16.780396 -27 27 04.10757
 2018-Aug-15 08:39     01 49 16.754467 -27 27 03.91838
 2018-Aug-15 08:40     01 49 16.728531 -27 27 03.72892
